SENTINEL-6              
1 46984U 20086A   24230.05280883 -.00000032  00000+0  12433-3 0  9993
2 46984  66.0405  84.8536 0007760 269.5871  90.4255 12.80930733174627
